[{"OBJECT_NAME":"STARLINK-3349","OBJECT_ID":"2022-001L","EPOCH":"2026-03-09T11:24:24.163488","MEAN_MOTION":15.3598126,"ECCENTRICITY":0.00040972,"INCLINATION":53.2075,"RA_OF_ASC_NODE":124.5069,"ARG_OF_PERICENTER":337.7117,"MEAN_ANOMALY":22.3708,"EPHEMERIS_TYPE":0,"CLASSIFICATION_TYPE":"U","NORAD_CAT_ID":50813,"ELEMENT_SET_NO":999,"REV_AT_EPOCH":23102,"BSTAR":0.0012714399,"MEAN_MOTION_DOT":0.00045078,"MEAN_MOTION_DDOT":0},{"OBJECT_NAME":"KUIPER-00134","OBJECT_ID":"2025-228P","EPOCH":"2026-03-09T23:25:39.467136","MEAN_MOTION":15.38627825,"ECCENTRICITY":0.00043719,"INCLINATION":51.8757,"RA_OF_ASC_NODE":318.9949,"ARG_OF_PERICENTER":326.8594,"MEAN_ANOMALY":33.2119,"EPHEMERIS_TYPE":0,"CLASSIFICATION_TYPE":"U","NORAD_CAT_ID":65960,"ELEMENT_SET_NO":999,"REV_AT_EPOCH":2383,"BSTAR":0.00094701326,"MEAN_MOTION_DOT":0.00036491,"MEAN_MOTION_DDOT":0}]
